GPS BIIR-2  (PRN 13)    
1 24876U 97035A   24179.24919259  .00000048  00000+0  00000+0 0  9995
2 24876  55.6737 126.7392 0080352  52.3057 308.3964  2.00565436197519
GPS BIIR-4  (PRN 20)    
1 26360U 00025A   24180.34831646 -.00000072  00000+0  00000+0 0  9992
2 26360  54.6754  48.4260 0038011 214.7130 303.5772  2.00577881176846
GPS BIIR-5  (PRN 22)    
1 26407U 00040A   24179.43858424  .00000018  00000+0  00000+0 0  9991
2 26407  55.0619 243.7770 0144765 294.6635 129.8689  2.00560371175515
GPS BIIR-8  (PRN 16)    
1 27663U 03005A   24179.92821353  .00000017  00000+0  00000+0 0  9994
2 27663  55.1004 243.5687 0136389  47.3936 147.0052  2.00574125156881
GPS BIIR-9  (PRN 21)    
1 27704U 03010A   24179.93148840 -.00000076  00000+0  00000+0 0  9996
2 27704  55.0974 353.3569 0253204 327.8483  87.0375  2.00563252155687
GPS BIIR-11 (PRN 19)    
1 28190U 04009A   24179.40794722 -.00000059  00000+0  00000+0 0  9994
2 28190  55.4454 304.6320 0098134 148.7248 188.7560  2.00558885148500
GPS BIIR-13 (PRN 02)    
1 28474U 04045A   24180.09815596 -.00000076  00000+0  00000+0 0  9998
2 28474  55.4257 353.7729 0161785 292.7423 228.5512  2.00561158143997
GPS BIIRM-1 (PRN 17)    
1 28874U 05038A   24179.90280794 -.00000061  00000+0  00000+0 0  9993
2 28874  55.4909 302.0741 0136236 284.2009  74.4596  2.00554554137417
GPS BIIRM-2 (PRN 31)    
1 29486U 06042A   24179.78053521  .00000099  00000+0  00000+0 0  9991
2 29486  54.6796 179.8668 0103403  38.3454 132.6496  2.00555083129967
GPS BIIRM-3 (PRN 12)    
1 29601U 06052A   24179.47032166  .00000020  00000+0  00000+0 0  9993
2 29601  55.1312 242.5652 0084817  83.2224 277.8173  2.00568282128977
GPS BIIRM-4 (PRN 15)    
1 32260U 07047A   24178.27648589  .00000019  00000+0  00000+0 0  9990
2 32260  53.6114 109.8737 0155529  75.4793 286.2295  2.00563462122357
GPS BIIRM-5 (PRN 29)    
1 32384U 07062A   24179.61002971 -.00000059  00000+0  00000+0 0  9997
2 32384  55.6309 302.9497 0028721 152.2995 219.2806  2.00575327121088
GPS BIIRM-6 (PRN 07)    
1 32711U 08012A   24179.19275525  .00000094  00000+0  00000+0 0  9995
2 32711  54.4524 178.6507 0188336 239.2480 118.8945  2.00568340119310
GPS BIIRM-8 (PRN 05)    
1 35752U 09043A   24179.43216376 -.00000060  00000+0  00000+0 0  9998
2 35752  55.6815  55.8754 0057033  72.3802 116.3947  2.00568439108926
GPS BIIF-1  (PRN 25)    
1 36585U 10022A   24179.53489888  .00000028  00000+0  00000+0 0  9996
2 36585  54.4418 237.5823 0114060  61.9608 321.8207  2.00551758103164
GPS BIIF-3  (PRN 24)    
1 38833U 12053A   24180.36783843  .00000099  00000+0  00000+0 0  9999
2 38833  53.5187 173.0121 0152289  55.9089 305.5304  2.00558727 85913
GPS BIIF-4  (PRN 27)    
1 39166U 13023A   24180.23072514 -.00000062  00000+0  00000+0 0  9990
2 39166  55.1030 298.1374 0123815  44.9641 316.0444  2.00562653 81452
GPS BIIF-5  (PRN 30)    
1 39533U 14008A   24180.23111226  .00000099  00000+0  00000+0 0  9995
2 39533  53.6013 178.6168 0073322 220.8655 138.5946  2.00569013 75818
GPS BIIF-6  (PRN 06)    
1 39741U 14026A   24179.51128618 -.00000072  00000+0  00000+0 0  9990
2 39741  56.7101 359.4673 0030933 316.6924  43.0853  2.00567522 74106
GPS BIIF-7  (PRN 09)    
1 40105U 14045A   24179.10599900  .00000031  00000+0  00000+0 0  9992
2 40105  54.9349 117.2125 0025883 115.0189 245.2352  2.00566932 71639
GPS BIIF-8  (PRN 03)    
1 40294U 14068A   24178.97890557 -.00000053  00000+0  00000+0 0  9997
2 40294  56.4288  58.8580 0054204  62.5290 298.0787  2.00560322 70768
GPS BIIF-9  (PRN 26)    
1 40534U 15013A   24179.60830249  .00000032  00000+0  00000+0 0  9994
2 40534  53.3400 233.9658 0087888  29.7367 330.8361  2.00564779 67391
GPS BIIF-10 (PRN 08)    
1 40730U 15033A   24179.27156173 -.00000053  00000+0  00000+0 0  9998
2 40730  54.5871 296.6445 0094012  19.7443 340.6338  2.00566331 65550
GPS BIIF-11 (PRN 10)    
1 41019U 15062A   24177.83495284 -.00000045  00000+0  00000+0 0  9991
2 41019  56.4083  58.7558 0095302 224.9157 134.3679  2.00562389 63366
GPS BIIF-12 (PRN 32)    
1 41328U 16007A   24179.41111574  .00000032  00000+0  00000+0 0  9992
2 41328  55.1299 118.0448 0079895 238.9363 120.2634  2.00561326 61403
GPS BIII-1  (PRN 04)    
1 43873U 18109A   24180.31527285  .00000030  00000+0  00000+0 0  9993
2 43873  55.3013 120.5888 0029219 195.0451 349.1195  2.00556333 40603
GPS BIII-2  (PRN 18)    
1 44506U 19056A   24178.94496205 -.00000073  00000+0  00000+0 0  9990
2 44506  55.8412 359.6978 0043052 188.1843 348.7067  2.00571611 35624
GPS BIII-3  (PRN 23)    
1 45854U 20041A   24177.54702108 -.00000046  00000+0  00000+0 0  9990
2 45854  56.1290  57.0986 0043191 192.6563 349.6934  2.00558386 29563
GPS BIII-4  (PRN 14)    
1 46826U 20078A   24180.32767362  .00000023  00000+0  00000+0 0  9997
2 46826  54.1758 239.9559 0047077 197.3476 171.3463  2.00559990 27083
GPS BIII-5  (PRN 11)    
1 48859U 21054A   24179.31578800 -.00000075  00000+0  00000+0 0  9992
2 48859  55.3662   1.3299 0015271 218.2134 324.4715  2.00557180 22316
GPS BIII-6  (PRN 28)    
1 55268U 23009A   24179.00049380  .00000094  00000+0  00000+0 0  9998
2 55268  55.0882 176.7825 0000717  99.3547 258.3410  2.00563376 10796
